[{"OBJECT_NAME":"YAOGAN-43 01G","OBJECT_ID":"2024-148G","EPOCH":"2026-03-09T10:38:37.087584","MEAN_MOTION":15.28332833,"ECCENTRICITY":0.00073829,"INCLINATION":35.0006,"RA_OF_ASC_NODE":62.0013,"ARG_OF_PERICENTER":306.3543,"MEAN_ANOMALY":53.6492,"EPHEMERIS_TYPE":0,"CLASSIFICATION_TYPE":"U","NORAD_CAT_ID":60464,"ELEMENT_SET_NO":999,"REV_AT_EPOCH":8700,"BSTAR":0.00035872736,"MEAN_MOTION_DOT":0.00010133,"MEAN_MOTION_DDOT":0},{"OBJECT_NAME":"STARLINK-32422","OBJECT_ID":"2024-187U","EPOCH":"2026-03-09T23:11:53.523744","MEAN_MOTION":15.30194257,"ECCENTRICITY":0.00013505,"INCLINATION":53.1618,"RA_OF_ASC_NODE":48.2807,"ARG_OF_PERICENTER":78.0614,"MEAN_ANOMALY":282.0538,"EPHEMERIS_TYPE":0,"CLASSIFICATION_TYPE":"U","NORAD_CAT_ID":61592,"ELEMENT_SET_NO":999,"REV_AT_EPOCH":7934,"BSTAR":4.7814487e-5,"MEAN_MOTION_DOT":1.057e-5,"MEAN_MOTION_DDOT":0}]
